BEIDOU-2 IGSO-1 (C06)   
1 36828U 10036A   25006.85978410 -.00000058  00000+0  00000+0 0  9994
2 36828  54.2663 167.7200 0043757 206.4110 149.5632  1.00271161 52813
BEIDOU-2 G4 (C04)       
1 37210U 10057A   25007.56160389 -.00000101  00000+0  00000+0 0  9999
2 37210   2.3427  70.3465 0009458 192.5310 206.6707  1.00270259 52028
BEIDOU-2 IGSO-2 (C07)   
1 37256U 10068A   25006.67429867 -.00000204  00000+0  00000+0 0  9995
2 37256  48.5035 278.3351 0039453 215.0041 323.2872  1.00287493 51519
BEIDOU-2 IGSO-3 (C08)   
1 37384U 11013A   25007.55535470 -.00000176  00000+0  00000+0 0  9992
2 37384  61.6494  45.1436 0029931 184.3364 183.2016  1.00257167 50390
BEIDOU-2 IGSO-4 (C09)   
1 37763U 11038A   25007.30018352  .00000047  00000+0  00000+0 0  9994
2 37763  54.5706 170.3706 0131888 228.5230 271.9927  1.00264365 49377
BEIDOU-2 IGSO-5 (C10)   
1 37948U 11073A   25006.67096383 -.00000165  00000+0  00000+0 0  9999
2 37948  48.6392 278.0327 0101539 220.7782 304.5533  1.00285949 47856
BEIDOU-2 G5 (C05)       
1 38091U 12008A   25007.04561906  .00000069  00000+0  00000+0 0  9990
2 38091   2.2622  71.1502 0013094 232.2843 238.5377  1.00270865 47098
BEIDOU-2 M3 (C11)       
1 38250U 12018A   25006.43731734 -.00000075  00000+0  00000+0 0  9996
2 38250  56.1934 322.5640 0024537 270.8969  88.8235  1.86233478 86136
BEIDOU-2 M4 (C12)       
1 38251U 12018B   25006.36814264 -.00000074  00000+0  00000+0 0  9998
2 38251  56.0985 321.8224 0015506 275.3955  84.4297  1.86231938 86132
BEIDOU-2 M6 (C14)       
1 38775U 12050B   25006.61493087 -.00000040  00000+0  00000+0 0  9992
2 38775  56.0810  80.3730 0011941 335.4055  24.5834  1.86230816 83859
BEIDOU-2 G6 (C02)       
1 38953U 12059A   25007.05060243 -.00000164  00000+0  00000+0 0  9999
2 38953   3.0807  78.8541 0008510 287.9188 202.2980  1.00272191 44631
BEIDOU-3S IGSO-1S (C31) 
1 40549U 15019A   25006.80145620 -.00000185  00000+0  00000+0 0  9990
2 40549  50.1925 301.7783 0034290 197.9392 350.2838  1.00258321 35798
BEIDOU-3S M2S (C58)     
1 40748U 15037A   25006.56929072 -.00000076  00000+0  00000+0 0  9994
2 40748  55.3241 320.1088 0011898 267.3573  92.5095  1.86228941 64312
BEIDOU-3S M1S (C57)     
1 40749U 15037B   25006.30593365 -.00000074  00000+0  00000+0 0  9997
2 40749  55.3269 320.1044 0004635 333.5059  26.4738  1.86227394 64301
BEIDOU-3S IGSO-2S (C56) 
1 40938U 15053A   25006.64241624 -.00000121  00000+0  00000+0 0  9993
2 40938  50.0382 265.0228 0051680 187.7424 339.9450  1.00258968 34078
BEIDOU-2 IGSO-6 (C13)   
1 41434U 16021A   25007.55882932 -.00000162  00000+0  00000+0 0  9990
2 41434  59.4782  43.2900 0055144 227.9609 134.2804  1.00274491 32213
BEIDOU-2 G7 (C03)       
1 41586U 16037A   25007.59397664 -.00000342  00000+0  00000+0 0  9992
2 41586   1.8696  67.8041 0007969 340.0521  23.8595  1.00266496  1623
BEIDOU-3 M1 (C19)       
1 43001U 17069A   25006.38074819 -.00000038  00000+0  00000+0 0  9994
2 43001  56.2299  80.5034 0010162 297.1779  62.7651  1.86230951 48795
BEIDOU-3 M2 (C20)       
1 43002U 17069B   25006.85535279 -.00000043  00000+0  00000+0 0  9995
2 43002  56.2298  80.5238 0007455 319.7232  40.2664  1.86230793 48796
BEIDOU-3 M7 (C27)       
1 43107U 18003A   25005.52864443 -.00000070  00000+0  00000+0 0  9991
2 43107  54.7835 320.6463 0003175  53.6944 306.3394  1.86232208 47528
BEIDOU-3 M8 (C28)       
1 43108U 18003B   25006.54465817 -.00000077  00000+0  00000+0 0  9994
2 43108  54.7755 320.5957 0004663 276.9657  82.9841  1.86230676 47555
BEIDOU-3 M4 (C22)       
1 43207U 18018A   25006.44888593 -.00000038  00000+0  00000+0 0  9996
2 43207  56.1888  80.5833 0004444 348.8783  11.1581  1.86230862 46933
BEIDOU-3 M3 (C21)       
1 43208U 18018B   25007.58935885 -.00000050  00000+0  00000+0 0  9994
2 43208  56.1892  80.5495 0007665 307.6463  52.3265  1.86231037 46952
BEIDOU-3 M9 (C29)       
1 43245U 18029A   25007.27178015 -.00000082  00000+0  00000+0 0  9992
2 43245  54.6589 318.2740 0001873 293.4003  66.5825  1.86232256 46100
BEIDOU-3 M10 (C30)      
1 43246U 18029B   25007.20132817 -.00000081  00000+0  00000+0 0  9995
2 43246  54.6568 318.3036 0004661 356.1019   3.8970  1.86228758 46083
BEIDOU-2 IGSO-7 (C16)   
1 43539U 18057A   25006.86188892 -.00000058  00000+0  00000+0 0  9990
2 43539  55.1590 167.6109 0079593 232.0385 127.2300  1.00249041 23862
BEIDOU-3 M5 (C23)       
1 43581U 18062A   25006.89039474  .00000122  00000+0  00000+0 0  9998
2 43581  54.1129 200.1993 0001663 354.0033   6.0263  1.86228450 43834
BEIDOU-3 M6 (C24)       
1 43582U 18062B   25005.68124587  .00000113  00000+0  00000+0 0  9995
2 43582  54.1125 200.2299 0007413  45.2064 314.8839  1.86229423 43811
BEIDOU-3 M12 (C26)      
1 43602U 18067A   25007.22641920  .00000124  00000+0  00000+0 0  9992
2 43602  54.2043 198.8775 0008696  36.9098 323.1801  1.86227658 43329
BEIDOU-3 M11 (C25)      
1 43603U 18067B   25006.28609188  .00000119  00000+0  00000+0 0  9992
2 43603  54.2020 198.8742 0005239  33.8064 326.2555  1.86227162 43339
BEIDOU-3 M13 (C32)      
1 43622U 18072A   25006.78349464 -.00000042  00000+0  00000+0 0  9998
2 43622  56.1614  80.0975 0006951 292.1320  67.8396  1.86230902 42850
BEIDOU-3 M14 (C33)      
1 43623U 18072B   25007.18592105 -.00000047  00000+0  00000+0 0  9991
2 43623  56.1636  80.0776 0004182 316.3064  43.7046  1.86230859 42858
BEIDOU-3 M16 (C35)      
1 43647U 18078A   25007.34717292 -.00000082  00000+0  00000+0 0  9996
2 43647  54.5553 318.3529 0007607  11.7573 348.2625  1.86232132 42361
BEIDOU-3 M15 (C34)      
1 43648U 18078B   25006.93939581 -.00000079  00000+0  00000+0 0  9994
2 43648  54.5514 318.3691 0004379  11.4297 348.5836  1.86231926 42370
BEIDOU-3 G1 (C59)       
1 43683U 18085A   25007.59033225 -.00000266  00000+0  00000+0 0  9992
2 43683   2.7004 102.5762 0001312  72.3880 284.9446  1.00274461 22788
BEIDOU-3 M17 (C36)      
1 43706U 18093A   25007.09262729  .00000123  00000+0  00000+0 0  9996
2 43706  54.1961 200.1461 0006020 299.6449  60.3271  1.86228104 41740
BEIDOU-3 M18 (C37)      
1 43707U 18093B   25006.95629829  .00000122  00000+0  00000+0 0  9998
2 43707  54.1974 200.1426 0005948 344.1952  15.8180  1.86229616 41731
BEIDOU-3 IGSO-1 (C38)   
1 44204U 19023A   25007.63789459 -.00000216  00000+0  00000+0 0  9992
2 44204  57.9425  43.0872 0023638 224.0356 187.8687  1.00292581  1943
BEIDOU-2 G8 (C01)       
1 44231U 19027A   25007.63559081 -.00000236  00000+0  00000+0 0  9994
2 44231   1.9864  74.8729 0004979 204.1892 201.6246  1.00274739 20811
BEIDOU-3 IGSO-2 (C39)   
1 44337U 19035A   25007.60083796 -.00000072  00000+0  00000+0 0  9990
2 44337  55.1978 163.4753 0035790 197.4440  80.9977  1.00275424 20399
BEIDOU-3 M24 (C46)      
1 44542U 19061A   25007.56345940  .00000125  00000+0  00000+0 0  9992
2 44542  54.4232 200.4569 0009021  19.7999 340.2685  1.86229132 36004
BEIDOU-3 M23 (C45)      
1 44543U 19061B   25007.59332177  .00000126  00000+0  00000+0 0  9995
2 44543  54.4220 200.4245 0005600  19.5477 273.1692  1.86229188 36004
BEIDOU-3 IGSO-3 (C40)   
1 44709U 19073A   25007.17102562 -.00000204  00000+0  00000+0 0  9997
2 44709  55.7023 286.5606 0041109 184.2616 175.7447  1.00294888 19188
BEIDOU-3 M22 (C44)      
1 44793U 19078A   25007.40741433 -.00000083  00000+0  00000+0 0  9992
2 44793  54.4025 318.2579 0006375  15.7364 344.2855  1.86231786 34854
BEIDOU-3 M21 (C43)      
1 44794U 19078B   25007.00023256 -.00000080  00000+0  00000+0 0  9992
2 44794  54.3764 318.2437 0004631   5.1065 354.9015  1.86227526 34854
BEIDOU-3 M19 (C41)      
1 44864U 19090A   25007.31948962 -.00000048  00000+0  00000+0 0  9992
2 44864  56.0957  80.2395 0018536 280.6492 125.5799  1.86231218 34446
BEIDOU-3 M20 (C42)      
1 44865U 19090B   25006.64574067 -.00000041  00000+0  00000+0 0  9992
2 44865  56.0967  80.2958 0015845 292.6159 111.5899  1.86231198 34416
BEIDOU-3 G2 (C60)       
1 45344U 20017A   25007.10813567 -.00000129  00000+0  00000+0 0  9996
2 45344   2.6034  36.5104 0004365 236.4823 312.8441  1.00269847 17987
BEIDOU-3 G3 (C61)       
1 45807U 20040A   25007.59400738 -.00000342  00000+0  00000+0 0  9998
2 45807   1.1895  58.8160 0003184 304.0449  68.8210  1.00276717 16809
BEIDOU-3 G4 (C62)       
1 56564U 23066A   25007.56299579 -.00000098  00000+0  00000+0 0  9995
2 56564   1.6152 289.4058 0003156 268.8839 271.6501  1.00269141  6123
BEIDOU-3 M28 (C50)      
1 58654U 23207A   25006.54592279 -.00000041  00000+0  00000+0 0  9992
2 58654  55.2814  80.1399 0003348 267.3712  92.6358  1.86231859  7037
BEIDOU-3 M26 (C48)      
1 58655U 23207B   25007.41926658 -.00000050  00000+0  00000+0 0  9992
2 58655  55.2841  80.0959 0004571 255.0895 104.9023  1.86231278  7035
